{
  "type": "FeatureCollection",
  "features": [
    {
      "type": "Feature",
      "properties": {
        "norad_id": 67126,
        "name": "STARLINK-36223",
        "group": "last-30-days",
        "lat": 13.11303341310736,
        "lon": -118.50166152203977,
        "alt_km": 340.78528557025584,
        "timestamp": "2025-12-27T08:36:17.081604+00:00",
        "meta_object_name": "STARLINK-36223",
        "meta_object_id": "2025-299AA",
        "meta_epoch": "2025-12-27T04:00:01.998720",
        "meta_mean_motion": 15.76518037,
        "meta_eccentricity": 0.0001876,
        "meta_inclination": 42.9986,
        "meta_ra_of_asc_node": 228.1869,
        "meta_arg_of_pericenter": 270.1383,
        "meta_mean_anomaly": 99.4987,
        "meta_ephemeris_type": 0,
        "meta_classification_type": "U",
        "meta_norad_cat_id": 67126,
        "meta_element_set_no": 999,
        "meta_rev_at_epoch": 312,
        "meta_bstar": -0.012221,
        "meta_mean_motion_dot": -0.01763396,
        "meta_mean_motion_ddot": 0,
        "tle_line1": "1 67126U 25299AA  25361.16668980 -.01763396  00000+0 -12221-1 0  9995",
        "tle_line2": "2 67126  42.9986 228.1869 0001876 270.1383  99.4987 15.76518037  3129"
      },
      "geometry": {
        "type": "Point",
        "coordinates": [
          -118.50166152203977,
          13.11303341310736
        ]
      }
    },
    {
      "type": "Feature",
      "properties": {
        "norad_id": 67127,
        "name": "STARLINK-36164",
        "group": "last-30-days",
        "lat": 14.264673989993527,
        "lon": -117.14949852880024,
        "alt_km": 340.5971326157123,
        "timestamp": "2025-12-27T08:36:17.081614+00:00",
        "meta_object_name": "STARLINK-36164",
        "meta_object_id": "2025-299AB",
        "meta_epoch": "2025-12-27T04:00:01.998720",
        "meta_mean_motion": 15.76528482,
        "meta_eccentricity": 0.0001859,
        "meta_inclination": 42.9987,
        "meta_ra_of_asc_node": 228.1826,
        "meta_arg_of_pericenter": 271.0745,
        "meta_mean_anomaly": 100.3052,
        "meta_ephemeris_type": 0,
        "meta_classification_type": "U",
        "meta_norad_cat_id": 67127,
        "meta_element_set_no": 999,
        "meta_rev_at_epoch": 312,
        "meta_bstar": -0.01224,
        "meta_mean_motion_dot": -0.01766575,
        "meta_mean_motion_ddot": 0,
        "tle_line1": "1 67127U 25299AB  25361.16668980 -.01766575  00000+0 -12240-1 0  9999",
        "tle_line2": "2 67127  42.9987 228.1826 0001859 271.0745 100.3052 15.76528482  3127"
      },
      "geometry": {
        "type": "Point",
        "coordinates": [
          -117.14949852880024,
          14.264673989993527
        ]
      }
    },
    {
      "type": "Feature",
      "properties": {
        "norad_id": 67128,
        "name": "STARLINK-35685",
        "group": "last-30-days",
        "lat": 17.17587512457992,
        "lon": -113.62219282830551,
        "alt_km": 340.18807811410534,
        "timestamp": "2025-12-27T08:36:17.081623+00:00",
        "meta_object_name": "STARLINK-35685",
        "meta_object_id": "2025-299AC",
        "meta_epoch": "2025-12-27T04:00:01.998720",
        "meta_mean_motion": 15.76498176,
        "meta_eccentricity": 0.0001818,
        "meta_inclination": 42.9986,
        "meta_ra_of_asc_node": 228.1708,
        "meta_arg_of_pericenter": 276.6351,
        "meta_mean_anomaly": 99.2433,
        "meta_ephemeris_type": 0,
        "meta_classification_type": "U",
        "meta_norad_cat_id": 67128,
        "meta_element_set_no": 999,
        "meta_rev_at_epoch": 313,
        "meta_bstar": -0.012244,
        "meta_mean_motion_dot": -0.01764901,
        "meta_mean_motion_ddot": 0,
        "tle_line1": "1 67128U 25299AC  25361.16668980 -.01764901  00000+0 -12244-1 0  9995",
        "tle_line2": "2 67128  42.9986 228.1708 0001818 276.6351  99.2433 15.76498176  3131"
      },
      "geometry": {
        "type": "Point",
        "coordinates": [
          -113.62219282830551,
          17.17587512457992
        ]
      }
    },
    {
      "type": "Feature",
      "properties": {
        "norad_id": 67129,
        "name": "STARLINK-36214",
        "group": "last-30-days",
        "lat": 15.538251652382606,
        "lon": -115.62679195573713,
        "alt_km": 340.419600117918,
        "timestamp": "2025-12-27T08:36:17.081633+00:00",
        "meta_object_name": "STARLINK-36214",
        "meta_object_id": "2025-299AD",
        "meta_epoch": "2025-12-27T04:00:01.998720",
        "meta_mean_motion": 15.76531042,
        "meta_eccentricity": 0.0001864,
        "meta_inclination": 42.9986,
        "meta_ra_of_asc_node": 228.1779,
        "meta_arg_of_pericenter": 272.1968,
        "meta_mean_anomaly": 101.1304,
        "meta_ephemeris_type": 0,
        "meta_classification_type": "U",
        "meta_norad_cat_id": 67129,
        "meta_element_set_no": 999,
        "meta_rev_at_epoch": 312,
        "meta_bstar": -0.012286,
        "meta_mean_motion_dot": -0.0177259,
        "meta_mean_motion_ddot": 0,
        "tle_line1": "1 67129U 25299AD  25361.16668980 -.01772590  00000+0 -12286-1 0  9995",
        "tle_line2": "2 67129  42.9986 228.1779 0001864 272.1968 101.1304 15.76531042  3125"
      },
      "geometry": {
        "type": "Point",
        "coordinates": [
          -115.62679195573713,
          15.538251652382606
        ]
      }
    },
    {
      "type": "Feature",
      "properties": {
        "norad_id": 67130,
        "name": "STARLINK-36194",
        "group": "last-30-days",
        "lat": 19.75153763886753,
        "lon": -110.3374791661621,
        "alt_km": 340.137158906251,
        "timestamp": "2025-12-27T08:36:17.081643+00:00",
        "meta_object_name": "STARLINK-36194",
        "meta_object_id": "2025-299AE",
        "meta_epoch": "2025-12-27T04:00:01.998720",
        "meta_mean_motion": 15.76414387,
        "meta_eccentricity": 0.0001699,
        "meta_inclination": 42.9985,
        "meta_ra_of_asc_node": 228.1627,
        "meta_arg_of_pericenter": 274.8132,
        "meta_mean_anomaly": 105.1725,
        "meta_ephemeris_type": 0,
        "meta_classification_type": "U",
        "meta_norad_cat_id": 67130,
        "meta_element_set_no": 999,
        "meta_rev_at_epoch": 313,
        "meta_bstar": -0.012402,
        "meta_mean_motion_dot": -0.01778878,
        "meta_mean_motion_ddot": 0,
        "tle_line1": "1 67130U 25299AE  25361.16668980 -.01778878  00000+0 -12402-1 0  9992",
        "tle_line2": "2 67130  42.9985 228.1627 0001699 274.8132 105.1725 15.76414387  3130"
      },
      "geometry": {
        "type": "Point",
        "coordinates": [
          -110.3374791661621,
          19.75153763886753
        ]
      }
    },
    {
      "type": "Feature",
      "properties": {
        "norad_id": 67131,
        "name": "ZIYUAN 3-04 (ZY 3-04)",
        "group": "last-30-days",
        "lat": 9.029076223914128,
        "lon": 74.19652933401211,
        "alt_km": 505.5991125834471,
        "timestamp": "2025-12-27T08:36:17.081655+00:00",
        "meta_object_name": "ZIYUAN 3-04 (ZY 3-04)",
        "meta_object_id": "2025-300A",
        "meta_epoch": "2025-12-27T02:15:00.635904",
        "meta_mean_motion": 15.21251311,
        "meta_eccentricity": 0.0003125,
        "meta_inclination": 97.4921,
        "meta_ra_of_asc_node": 75.1314,
        "meta_arg_of_pericenter": 152.4137,
        "meta_mean_anomaly": 207.7264,
        "meta_ephemeris_type": 0,
        "meta_classification_type": "U",
        "meta_norad_cat_id": 67131,
        "meta_element_set_no": 999,
        "meta_rev_at_epoch": 167,
        "meta_bstar": 9.4249e-05,
        "meta_mean_motion_dot": 2.035e-05,
        "meta_mean_motion_ddot": 0,
        "tle_line1": "1 67131U 25300A   25361.09375736  .00002035  00000+0  94249-4 0  9996",
        "tle_line2": "2 67131  97.4921  75.1314 0003125 152.4137 207.7264 15.21251311  1671"
      },
      "geometry": {
        "type": "Point",
        "coordinates": [
          74.19652933401211,
          9.029076223914128
        ]
      }
    },
    {
      "type": "Feature",
      "properties": {
        "norad_id": 67132,
        "name": "CZ-4B R/B",
        "group": "last-30-days",
        "lat": -77.32063475508465,
        "lon": -139.89255757532814,
        "alt_km": 354.2928812185746,
        "timestamp": "2025-12-27T08:36:17.081666+00:00",
        "meta_object_name": "CZ-4B R/B",
        "meta_object_id": "2025-300B",
        "meta_epoch": "2025-12-18T16:13:04.609056",
        "meta_mean_motion": 15.63831828,
        "meta_eccentricity": 0.01741973,
        "meta_inclination": 97.5563,
        "meta_ra_of_asc_node": 66.966,
        "meta_arg_of_pericenter": 9.3582,
        "meta_mean_anomaly": 351.0851,
        "meta_ephemeris_type": 0,
        "meta_classification_type": "U",
        "meta_norad_cat_id": 67132,
        "meta_element_set_no": 999,
        "meta_rev_at_epoch": 40,
        "meta_bstar": 0.00019566238,
        "meta_mean_motion_dot": 0.00040543,
        "meta_mean_motion_ddot": 2.652968e-06,
        "tle_line1": "1 67132U 25300B   25352.67574779  .00040543  26530-5  19566-3 0  9995",
        "tle_line2": "2 67132  97.5563  66.9660 0174197   9.3582 351.0851 15.63831828   407"
      },
      "geometry": {
        "type": "Point",
        "coordinates": [
          -139.89255757532814,
          -77.32063475508465
        ]
      }
    }
  ]
}